[
  {
    "pref_code": "011002",
    "no": "",
    "pref_name": "北海道",
    "city_name": "札幌市",
    "name": "地下鉄南北線さっぽろ駅",
    "name_kana": "チカテツナンボクセンサッポロエキ",
    "name_en": "SubwayNanbokuLineSapporoStation",
    "address": "北海道札幌市中央区北4条西4",
    "room_no": "",
    "latitude": 43.066361,
    "longitude": 141.650605,
    "owner": "札幌市",
    "phone_num": "011-896-2708",
    "phone_internal_num": "",
    "ssid": "Sapporo_City_Wi_Fi",
    "area": "",
    "url": "http://www.city.sapporo.jp/st/index.html",
    "remarks": ""
  },
  {
    "pref_code": "011002",
    "no": "",
    "pref_name": "北海道",
    "city_name": "札幌市",
    "name": "地下鉄東豊線さっぽろ駅",
    "name_kana": "チカテツトウホウセンサッポロエキ",
    "name_en": "SubwayTohoLineSapporoStation",
    "address": "北海道札幌市中央区北4条西4",
    "room_no": "",
    "latitude": 43.066361,
    "longitude": 141.650605,
    "owner": "札幌市",
    "phone_num": "011-896-2708",
    "phone_internal_num": "",
    "ssid": "Sapporo_City_Wi_Fi",
    "area": "",
    "url": "http://www.city.sapporo.jp/st/index.html",
    "remarks": ""
  },
  {
    "pref_code": "011002",
    "no": "",
    "pref_name": "北海道",
    "city_name": "札幌市",
    "name": "地下鉄南北線大通駅",
    "name_kana": "チカテツナンボクセンオオドオリエキ",
    "name_en": "SubwayNanbokuLineOdoriStation",
    "address": "北海道札幌市中央区大通西4",
    "room_no": "",
    "latitude": 43.060515,
    "longitude": 141.352117,
    "owner": "札幌市",
    "phone_num": "011-896-2708",
    "phone_internal_num": "",
    "ssid": "Sapporo_City_Wi_Fi",
    "area": "",
    "url": "http://www.city.sapporo.jp/st/index.html",
    "remarks": ""
  },
  {
    "pref_code": "011002",
    "no": "",
    "pref_name": "北海道",
    "city_name": "札幌市",
    "name": "地下鉄東豊線大通駅",
    "name_kana": "チカテツトウホウセンオオドオリエキ",
    "name_en": "SubwayTohoLineOdoriStation",
    "address": "北海道札幌市中央区大通西4",
    "room_no": "",
    "latitude": 43.060515,
    "longitude": 141.352117,
    "owner": "札幌市",
    "phone_num": "011-896-2708",
    "phone_internal_num": "",
    "ssid": "Sapporo_City_Wi_Fi",
    "area": "",
    "url": "http://www.city.sapporo.jp/st/index.html",
    "remarks": ""
  },
  {
    "pref_code": "011002",
    "no": "",
    "pref_name": "北海道",
    "city_name": "札幌市",
    "name": "地下鉄東西線大通駅",
    "name_kana": "チカテツトウザイセンオオドオリエキ",
    "name_en": "SubwayTozaiLineOdoriStation",
    "address": "北海道札幌市中央区大通西4",
    "room_no": "",
    "latitude": 43.060515,
    "longitude": 141.352117,
    "owner": "札幌市",
    "phone_num": "011-896-2708",
    "phone_internal_num": "",
    "ssid": "Sapporo_City_Wi_Fi",
    "area": "",
    "url": "http://www.city.sapporo.jp/st/index.html",
    "remarks": ""
  },
  {
    "pref_code": "011002",
    "no": "",
    "pref_name": "北海道",
    "city_name": "札幌市",
    "name": "すすきの駅",
    "name_kana": "ススキノエキ",
    "name_en": "SusukinoStation",
    "address": "北海道札幌市中央区南4条西4",
    "room_no": "",
    "latitude": 43.056105,
    "longitude": 141.353234,
    "owner": "札幌市",
    "phone_num": "011-896-2708",
    "phone_internal_num": "",
    "ssid": "Sapporo_City_Wi_Fi",
    "area": "",
    "url": "http://www.city.sapporo.jp/st/index.html",
    "remarks": ""
  },
  {
    "pref_code": "011002",
    "no": "",
    "pref_name": "北海道",
    "city_name": "札幌市",
    "name": "地下鉄東西線新さっぽろ駅",
    "name_kana": "チカテツトウザイセンシンサッポロエキ",
    "name_en": "SubwayTozaiLineShinSaporoiStation",
    "address": "北海道札幌市厚別区厚別中央2条5",
    "room_no": "",
    "latitude": 43.038555,
    "longitude": 141.473803,
    "owner": "札幌市",
    "phone_num": "011-896-2708",
    "phone_internal_num": "",
    "ssid": "Sapporo_City_Wi_Fi",
    "area": "",
    "url": "http://www.city.sapporo.jp/st/index.html",
    "remarks": ""
  },
  {
    "pref_code": "011002",
    "no": "",
    "pref_name": "北海道",
    "city_name": "札幌市",
    "name": "宮の沢駅",
    "name_kana": "ミヤノサワエキ",
    "name_en": "MiyanosawaStation",
    "address": "北海道札幌市西区宮の沢1条1",
    "room_no": "",
    "latitude": 43.090124,
    "longitude": 141.277107,
    "owner": "札幌市",
    "phone_num": "011-896-2708",
    "phone_internal_num": "",
    "ssid": "Sapporo_City_Wi_Fi",
    "area": "",
    "url": "http://www.city.sapporo.jp/st/index.html",
    "remarks": ""
  },
  {
    "pref_code": "011002",
    "no": "",
    "pref_name": "北海道",
    "city_name": "札幌市",
    "name": "円山公園駅",
    "name_kana": "マルヤマコウエンエキ",
    "name_en": "MaruyamakoenStation",
    "address": "北海道札幌市中央区大通西25",
    "room_no": "",
    "latitude": 43.055647,
    "longitude": 141.31897,
    "owner": "札幌市",
    "phone_num": "011-896-2708",
    "phone_internal_num": "",
    "ssid": "Sapporo_City_Wi_Fi",
    "area": "",
    "url": "http://www.city.sapporo.jp/st/index.html",
    "remarks": ""
  },
  {
    "pref_code": "011002",
    "no": "",
    "pref_name": "北海道",
    "city_name": "札幌市",
    "name": "麻生駅",
    "name_kana": "アサブエキ",
    "name_en": "AsabuStation",
    "address": "北海道札幌市北区北40条東15",
    "room_no": "",
    "latitude": 43.108322,
    "longitude": 141.338382,
    "owner": "札幌市",
    "phone_num": "011-896-2708",
    "phone_internal_num": "",
    "ssid": "Sapporo_City_Wi_Fi",
    "area": "",
    "url": "http://www.city.sapporo.jp/st/index.html",
    "remarks": ""
  },
  {
    "pref_code": "011002",
    "no": "",
    "pref_name": "北海道",
    "city_name": "札幌市",
    "name": "栄町駅",
    "name_kana": "サカエマチエキ",
    "name_en": "SakaemachiStation",
    "address": "北海道札幌市東区北42条東15",
    "room_no": "",
    "latitude": 43.113007,
    "longitude": 141.367094,
    "owner": "札幌市",
    "phone_num": "011-896-2708",
    "phone_internal_num": "",
    "ssid": "Sapporo_City_Wi_Fi",
    "area": "",
    "url": "http://www.city.sapporo.jp/st/index.html",
    "remarks": ""
  },
  {
    "pref_code": "011002",
    "no": "",
    "pref_name": "北海道",
    "city_name": "札幌市",
    "name": "バスセンター前駅",
    "name_kana": "バスセンターマエエキ",
    "name_en": "BusCentermaeStation",
    "address": "北海道札幌市中央区大通東4",
    "room_no": "",
    "latitude": 43.061287,
    "longitude": 141.36038,
    "owner": "札幌市",
    "phone_num": "011-896-2708",
    "phone_internal_num": "",
    "ssid": "Sapporo_City_Wi_Fi",
    "area": "",
    "url": "http://www.city.sapporo.jp/st/index.html",
    "remarks": ""
  },
  {
    "pref_code": "011002",
    "no": "",
    "pref_name": "北海道",
    "city_name": "札幌市",
    "name": "東札幌駅",
    "name_kana": "ヒガシサッポロエキ",
    "name_en": "HigashiSapporoStation",
    "address": "北海道札幌市白石区東札幌2条2",
    "room_no": "",
    "latitude": 43.051872,
    "longitude": 141.384718,
    "owner": "札幌市",
    "phone_num": "011-896-2708",
    "phone_internal_num": "",
    "ssid": "Sapporo_City_Wi_Fi",
    "area": "",
    "url": "http://www.city.sapporo.jp/st/index.html",
    "remarks": ""
  },
  {
    "pref_code": "011002",
    "no": "",
    "pref_name": "北海道",
    "city_name": "札幌市",
    "name": "中島公園駅",
    "name_kana": "ナカジマコウエンエキ",
    "name_en": "NakajimakoenStation",
    "address": "北海道札幌市中央区南9条西4",
    "room_no": "",
    "latitude": 43.048687,
    "longitude": 141.355071,
    "owner": "札幌市",
    "phone_num": "011-896-2708",
    "phone_internal_num": "",
    "ssid": "Sapporo_City_Wi_Fi",
    "area": "",
    "url": "http://www.city.sapporo.jp/st/index.html",
    "remarks": ""
  },
  {
    "pref_code": "011002",
    "no": "",
    "pref_name": "北海道",
    "city_name": "札幌市",
    "name": "真駒内駅",
    "name_kana": "マコマナイエキ",
    "name_en": "MakomanaiStation",
    "address": "北海道札幌市南区真駒内17",
    "room_no": "",
    "latitude": 42.991181,
    "longitude": 141.358434,
    "owner": "札幌市",
    "phone_num": "011-896-2708",
    "phone_internal_num": "",
    "ssid": "Sapporo_City_Wi_Fi",
    "area": "",
    "url": "http://www.city.sapporo.jp/st/index.html",
    "remarks": ""
  },
  {
    "pref_code": "011002",
    "no": "",
    "pref_name": "北海道",
    "city_name": "札幌市",
    "name": "福住駅",
    "name_kana": "フクズミエキ",
    "name_en": "FukuzumiStation",
    "address": "北海道札幌市豊平区月寒東1条13",
    "room_no": "",
    "latitude": 43.021694,
    "longitude": 141.402975,
    "owner": "札幌市",
    "phone_num": "011-896-2708",
    "phone_internal_num": "",
    "ssid": "Sapporo_City_Wi_Fi",
    "area": "",
    "url": "http://www.city.sapporo.jp/st/index.html",
    "remarks": ""
  },
  {
    "pref_code": "011002",
    "no": "",
    "pref_name": "北海道",
    "city_name": "札幌市",
    "name": "大通公園1丁目",
    "name_kana": "オオドオリコウエンイッチョウメ",
    "name_en": "OdoriPark１Chome",
    "address": "北海道札幌市中央区大通西１",
    "room_no": "",
    "latitude": 43.0610711,
    "longitude": 141.356083,
    "owner": "札幌市",
    "phone_num": "011-251-0438",
    "phone_internal_num": "",
    "ssid": "Sapporo_City_Wi_Fi,Sapporo_City_Wi_Fi_２G",
    "area": "",
    "url": "http://www.sapporo-park.or.jp/odori/",
    "remarks": ""
  },
  {
    "pref_code": "011002",
    "no": "",
    "pref_name": "北海道",
    "city_name": "札幌市",
    "name": "大通公園2丁目",
    "name_kana": "オオドオリコウエンニチョウメ",
    "name_en": "OdoriPark２Chome",
    "address": "北海道札幌市中央区大通西２",
    "room_no": "",
    "latitude": 43.0608477,
    "longitude": 141.3544321,
    "owner": "札幌市",
    "phone_num": "011-251-0439",
    "phone_internal_num": "",
    "ssid": "Sapporo_City_Wi_Fi,Sapporo_City_Wi_Fi_３G",
    "area": "",
    "url": "http://www.sapporo-park.or.jp/odori/",
    "remarks": ""
  },
  {
    "pref_code": "011002",
    "no": "",
    "pref_name": "北海道",
    "city_name": "札幌市",
    "name": "大通公園3丁目",
    "name_kana": "オオオドリコウエンサンチョウメ",
    "name_en": "OdoriPark３Chome",
    "address": "北海道札幌市中央区大通西３",
    "room_no": "",
    "latitude": 43.0606389,
    "longitude": 141.3528939,
    "owner": "札幌市",
    "phone_num": "011-251-0440",
    "phone_internal_num": "",
    "ssid": "Sapporo_City_Wi_Fi,Sapporo_City_Wi_Fi_４G",
    "area": "",
    "url": "http://www.sapporo-park.or.jp/odori/",
    "remarks": ""
  },
  {
    "pref_code": "011002",
    "no": "",
    "pref_name": "北海道",
    "city_name": "札幌市",
    "name": "大通公園4丁目",
    "name_kana": "オオドオリコウエンヨンチョウメ",
    "name_en": "OdoriPark４Chome",
    "address": "北海道札幌市中央区大通西４",
    "room_no": "",
    "latitude": 43.0604204,
    "longitude": 141.3512778,
    "owner": "札幌市",
    "phone_num": "011-251-0441",
    "phone_internal_num": "",
    "ssid": "Sapporo_City_Wi_Fi,Sapporo_City_Wi_Fi_５G",
    "area": "",
    "url": "http://www.sapporo-park.or.jp/odori/",
    "remarks": ""
  },
  {
    "pref_code": "011002",
    "no": "",
    "pref_name": "北海道",
    "city_name": "札幌市",
    "name": "大通公園5丁目",
    "name_kana": "オオドオリコウエンゴチョウメ",
    "name_en": "OdoriPark５Chome",
    "address": "北海道札幌市中央区大通西５",
    "room_no": "",
    "latitude": 43.0602117,
    "longitude": 141.3497369,
    "owner": "札幌市",
    "phone_num": "011-251-0442",
    "phone_internal_num": "",
    "ssid": "Sapporo_City_Wi_Fi,Sapporo_City_Wi_Fi_６G",
    "area": "",
    "url": "http://www.sapporo-park.or.jp/odori/",
    "remarks": ""
  },
  {
    "pref_code": "011002",
    "no": "",
    "pref_name": "北海道",
    "city_name": "札幌市",
    "name": "大通公園6丁目",
    "name_kana": "オオドオリコウエンロクチョウメ",
    "name_en": "OdoriPark６Chome",
    "address": "北海道札幌市中央区大通西６",
    "room_no": "",
    "latitude": 43.0600001,
    "longitude": 141.3481678,
    "owner": "札幌市",
    "phone_num": "011-251-0443",
    "phone_internal_num": "",
    "ssid": "Sapporo_City_Wi_Fi,Sapporo_City_Wi_Fi_７G",
    "area": "",
    "url": "http://www.sapporo-park.or.jp/odori/",
    "remarks": ""
  },
  {
    "pref_code": "011002",
    "no": "",
    "pref_name": "北海道",
    "city_name": "札幌市",
    "name": "大通公園7丁目",
    "name_kana": "オオドオリコウエンナナチョウメ",
    "name_en": "OdoriPark７Chome",
    "address": "北海道札幌市中央区大通西７",
    "room_no": "",
    "latitude": 43.0597894,
    "longitude": 141.3466027,
    "owner": "札幌市",
    "phone_num": "011-251-0444",
    "phone_internal_num": "",
    "ssid": "Sapporo_City_Wi_Fi,Sapporo_City_Wi_Fi_８G",
    "area": "",
    "url": "http://www.sapporo-park.or.jp/odori/",
    "remarks": ""
  },
  {
    "pref_code": "011002",
    "no": "",
    "pref_name": "北海道",
    "city_name": "札幌市",
    "name": "大通公園8丁目",
    "name_kana": "オオドオリコウエンハッチョウメ",
    "name_en": "OdoriPark８Chome",
    "address": "北海道札幌市中央区大通西８",
    "room_no": "",
    "latitude": 43.0595797,
    "longitude": 141.3450457,
    "owner": "札幌市",
    "phone_num": "011-251-0445",
    "phone_internal_num": "",
    "ssid": "Sapporo_City_Wi_Fi,Sapporo_City_Wi_Fi_９G",
    "area": "",
    "url": "http://www.sapporo-park.or.jp/odori/",
    "remarks": ""
  },
  {
    "pref_code": "011002",
    "no": "",
    "pref_name": "北海道",
    "city_name": "札幌市",
    "name": "大通公園9丁目",
    "name_kana": "オオドオリコウエンキュウチョウメ",
    "name_en": "OdoriPark９Chome",
    "address": "北海道札幌市中央区大通西９",
    "room_no": "",
    "latitude": 43.0593798,
    "longitude": 141.3435651,
    "owner": "札幌市",
    "phone_num": "011-251-0446",
    "phone_internal_num": "",
    "ssid": "Sapporo_City_Wi_Fi,Sapporo_City_Wi_Fi_１０G",
    "area": "",
    "url": "http://www.sapporo-park.or.jp/odori/",
    "remarks": ""
  },
  {
    "pref_code": "011002",
    "no": "",
    "pref_name": "北海道",
    "city_name": "札幌市",
    "name": "大通公園10丁目",
    "name_kana": "オオドオリコウエンジュッチョウメ",
    "name_en": "OdoriPark１０Chome",
    "address": "北海道札幌市中央区大通西１０",
    "room_no": "",
    "latitude": 43.0591554,
    "longitude": 141.3419102,
    "owner": "札幌市",
    "phone_num": "011-251-0447",
    "phone_internal_num": "",
    "ssid": "Sapporo_City_Wi_Fi,Sapporo_City_Wi_Fi_１１G",
    "area": "",
    "url": "http://www.sapporo-park.or.jp/odori/",
    "remarks": ""
  },
  {
    "pref_code": "011002",
    "no": "",
    "pref_name": "北海道",
    "city_name": "札幌市",
    "name": "大通公園11丁目",
    "name_kana": "オオドオリコウエンジュウイッチョウメ",
    "name_en": "OdoriPark１１Chome",
    "address": "北海道札幌市中央区大通西１１",
    "room_no": "",
    "latitude": 43.0589291,
    "longitude": 141.3402392,
    "owner": "札幌市",
    "phone_num": "011-251-0448",
    "phone_internal_num": "",
    "ssid": "Sapporo_City_Wi_Fi,Sapporo_City_Wi_Fi_１２G",
    "area": "",
    "url": "http://www.sapporo-park.or.jp/odori/",
    "remarks": ""
  },
  {
    "pref_code": "011002",
    "no": "",
    "pref_name": "北海道",
    "city_name": "札幌市",
    "name": "札幌ｺﾝﾍﾞﾝｼｮﾝｾﾝﾀｰ",
    "name_kana": "サッポロコンベンションセンター",
    "name_en": "SapporoConventionCenter",
    "address": "北海道札幌市白石区東札幌6条1",
    "room_no": "",
    "latitude": 43.057209,
    "longitude": 141.388034,
    "owner": "札幌市",
    "phone_num": "011-817-1010",
    "phone_internal_num": "",
    "ssid": "Sapporo_City_Wi_Fi",
    "area": "",
    "url": "https://www.sora-scc.jp/",
    "remarks": ""
  },
  {
    "pref_code": "011002",
    "no": "",
    "pref_name": "北海道",
    "city_name": "札幌市",
    "name": "円山動物園",
    "name_kana": "マルヤマドウブツエン",
    "name_en": "Maruyama Zoo",
    "address": "北海道札幌市中央区宮が丘3",
    "room_no": "",
    "latitude": 43.048809,
    "longitude": 141.305971,
    "owner": "札幌市",
    "phone_num": "011-621-1426",
    "phone_internal_num": "",
    "ssid": "Sapporo_City_Wi_Fi",
    "area": "屋外園路全域,動物園センター,アフリカゾーン等主要獣舎,レストランスペース10か所",
    "url": "https://www.city.sapporo.jp/zoo/",
    "remarks": ""
  },
  {
    "pref_code": "011002",
    "no": "",
    "pref_name": "北海道",
    "city_name": "札幌市",
    "name": "定山渓温泉",
    "name_kana": "ジョウザンケイオンセン",
    "name_en": "JozankeiOnsen",
    "address": "北海道札幌市南区定山渓温泉",
    "room_no": "",
    "latitude": 42.968812,
    "longitude": 141.166896,
    "owner": "札幌市",
    "phone_num": "",
    "phone_internal_num": "",
    "ssid": "Sapporo_City_Wi_Fi",
    "area": "温泉街中心部,定山渓源泉公園,足湯(2か所),手湯,定山渓神社,二見公園,三笠緑地",
    "url": "",
    "remarks": ""
  },
  {
    "pref_code": "011002",
    "no": "",
    "pref_name": "北海道",
    "city_name": "札幌市",
    "name": "チカホ",
    "name_kana": "チカホ",
    "name_en": "ChiKaHo",
    "address": "北海道札幌市中央区北3条西4丁目,北海道札幌市中央区北3条西3丁目,北海道札幌市中央区北2条西4丁目",
    "room_no": "",
    "latitude": 43.063177,
    "longitude": 141.351192,
    "owner": "札幌市",
    "phone_num": "011-211-6406",
    "phone_internal_num": "",
    "ssid": "Sapporo_City_Wi_Fi,Sapporo_City_Wi_Fi_２G",
    "area": "",
    "url": "http://www.sapporo-chikamichi.jp/",
    "remarks": ""
  },
  {
    "pref_code": "011002",
    "no": "",
    "pref_name": "北海道",
    "city_name": "札幌市",
    "name": "アカプラ",
    "name_kana": "アカプラ",
    "name_en": "AKAPLA",
    "address": "北海道札幌市中央区北2条西4丁目,北海道札幌市中央区北3条西4丁目",
    "room_no": "",
    "latitude": 43.064239,
    "longitude": 141.350377,
    "owner": "札幌市",
    "phone_num": "011-211-6407",
    "phone_internal_num": "",
    "ssid": "Sapporo_City_Wi_Fi,Sapporo_City_Wi_Fi_３G",
    "area": "",
    "url": "http://www.sapporo-chikamichi.jp/",
    "remarks": ""
  },
  {
    "pref_code": "011002",
    "no": "",
    "pref_name": "北海道",
    "city_name": "札幌市",
    "name": "ちえりあ",
    "name_kana": "チエリア",
    "name_en": "Cheria",
    "address": "北海道札幌市西区宮の沢1条1",
    "room_no": "",
    "latitude": 43.088376,
    "longitude": 141.27433,
    "owner": "札幌市",
    "phone_num": "011-671-2200",
    "phone_internal_num": "",
    "ssid": "Sapporo_City_Wi_Fi",
    "area": "",
    "url": "https://chieria.slp.or.jp/",
    "remarks": ""
  },
  {
    "pref_code": "011002",
    "no": "",
    "pref_name": "北海道",
    "city_name": "札幌市",
    "name": "大倉山ジャンプ競技場",
    "name_kana": "オオクラヤマジャンプキョウギジョウ",
    "name_en": "OkurayamaSkiJumpStaｄium",
    "address": "北海道札幌市中央区宮の森1274",
    "room_no": "",
    "latitude": 43.051097,
    "longitude": 141.290647,
    "owner": "札幌市",
    "phone_num": "011-641-8585",
    "phone_internal_num": "",
    "ssid": "Sapporo_City_Wi_Fi",
    "area": "",
    "url": "http://okura.sapporo-dc.co.jp/index.html",
    "remarks": ""
  },
  {
    "pref_code": "011002",
    "no": "",
    "pref_name": "北海道",
    "city_name": "札幌市",
    "name": "宮の森ジャンプ競技場",
    "name_kana": "ミヤノモリジャンプキョウギジョウ",
    "name_en": "MiyanomoriSkiJumpStaｄium",
    "address": "北海道札幌市中央区宮の森1条18",
    "room_no": "",
    "latitude": 43.039315,
    "longitude": 141.294623,
    "owner": "札幌市",
    "phone_num": "011-642-1972",
    "phone_internal_num": "",
    "ssid": "Sapporo_City_Wi_Fi",
    "area": "",
    "url": "http://www.city.sapporo.jp/sports/sisetsu/institution/jump/miyanomori.html",
    "remarks": ""
  },
  {
    "pref_code": "011002",
    "no": "",
    "pref_name": "北海道",
    "city_name": "札幌市",
    "name": "月寒体育館",
    "name_kana": "ツキサムタイイクカン",
    "name_en": "TsukisamuGymnasium",
    "address": "北海道豊平区月寒東1条8",
    "room_no": "",
    "latitude": 43.029363,
    "longitude": 141.399295,
    "owner": "札幌市",
    "phone_num": "011-851-1972",
    "phone_internal_num": "",
    "ssid": "Sapporo_City_Wi_Fi",
    "area": "",
    "url": "http://www.shsf.jp/tsukisamu-gym/",
    "remarks": ""
  },
  {
    "pref_code": "011002",
    "no": "",
    "pref_name": "北海道",
    "city_name": "札幌市",
    "name": "どうぎんカーリングスタジアム",
    "name_kana": "ドウギンカーリングスタジアム",
    "name_en": "HokkaidoBnkCurlingStadium",
    "address": "北海道豊平区月寒東1条9",
    "room_no": "",
    "latitude": 43.028462,
    "longitude": 141.399692,
    "owner": "札幌市",
    "phone_num": "011-853-4572",
    "phone_internal_num": "",
    "ssid": "Sapporo_City_Wi_Fi",
    "area": "",
    "url": "http://www.shsf.jp/curling/",
    "remarks": ""
  },
  {
    "pref_code": "011002",
    "no": "",
    "pref_name": "北海道",
    "city_name": "札幌市",
    "name": "美香保体育館",
    "name_kana": "ミカホタイイクカン",
    "name_en": "MikahoGymnasium",
    "address": "北海道札幌市東区北22条被害５",
    "room_no": "",
    "latitude": 43.089359,
    "longitude": 141.35721,
    "owner": "札幌市",
    "phone_num": "011-741-1972",
    "phone_internal_num": "",
    "ssid": "Sapporo_City_Wi_Fi",
    "area": "",
    "url": "http://www.shsf.jp/mikaho-gym/",
    "remarks": ""
  },
  {
    "pref_code": "011002",
    "no": "",
    "pref_name": "北海道",
    "city_name": "札幌市",
    "name": "札幌ドーム",
    "name_kana": "サッポロドーム",
    "name_en": "SapporoDome",
    "address": "北海道札幌市豊平区羊が丘1",
    "room_no": "",
    "latitude": 43.015775,
    "longitude": 141.409529,
    "owner": "札幌市",
    "phone_num": "011-850-1000",
    "phone_internal_num": "",
    "ssid": "Sapporo_City_Wi_Fi",
    "area": "",
    "url": "https://www.sapporo-dome.co.jp/",
    "remarks": ""
  }
]